#aV2023  7  2  0  0  0.00000000     288 DD+AD WGS84 FIT  NGA
## 2269      0.00000000   300.00000000 60127 0.0000000000000
+   32     1  2  3  4  5  6  7  8  9 10 11 12 13 14 15 16 17
+         18 19 20 21 22 23 24 25 26 27 28 29 30 31 32  0  0
+          0  0  0  0  0  0  0  0  0  0  0  0  0  0  0  0  0
+          0  0  0  0  0  0  0  0  0  0  0  0  0  0  0  0  0
+          0  0  0  0  0  0  0  0  0  0  0  0  0  0  0  0  0
++         2  2  2  2  2  2  2  2  2  2  2  2  2  2  2  2  2
++         2  2  2  2  2  2  2  2  2  2  2  2  2  2  2  0  0
++         0  0  0  0  0  0  0  0  0  0  0  0  0  0  0  0  0
++         0  0  0  0  0  0  0  0  0  0  0  0  0  0  0  0  0
++         0  0  0  0  0  0  0  0  0  0  0  0  0  0  0  0  0
%c cc cc ccc ccc cccc cccc cccc cccc ccccc ccccc ccccc ccccc
%c cc cc ccc ccc cccc cccc cccc cccc ccccc ccccc ccccc ccccc
%f  0.0000000  0.000000000  0.00000000000  0.000000000000000
%f  0.0000000  0.000000000  0.00000000000  0.000000000000000
%i    0    0    0    0      0      0      0      0         0
%i    0    0    0    0      0      0      0      0         0
/*      NGA, ST. LOUIS,MO.                                  
/*   EPHEMERIS COMPUTED FROM 2 DAYS OF DATA                 
/*   EPOCHA v8 SMOOTHER                                     
/*   G2139 IERS2010 SATIGS SATAPC                           
*  2023  7  2 23 40  0.00000000
P  1 -13341.131645  15049.180444  16820.167758    174.921674                    
V  1   1660.236800 -22089.360322  20994.467557     -0.020760                    
P  2 -14670.562992   9035.200151  20676.875471   -580.037238                    
V  2    203.113850 -25169.361676  11570.013930      0.037464                    
P  3 -22508.846250  13089.422526  -5045.835527   -248.141350                    
V  3  -6618.244917    345.674063  31395.159343      0.148892                    
P  4 -14084.535886   7558.867298 -21217.747737     84.787788                    
V  4 -20516.157115 -17472.660789   7276.331630      0.106383                    
P  5  24152.126805  -3135.557334 -10911.591042   -133.394395                    
V  5 -11307.120575   7752.010959 -27600.924574     -0.014621                    
P  6   6034.440376  21918.061933 -13597.069842    581.204165                    
V  6  -3927.520197  16975.496109  25601.277837     -0.029158                    
P  7  -5937.788320  25275.271871  -3717.433570    136.063618                    
V  7  -2875.802541  -5780.925290 -31347.616076     -0.105690                    
P  8 -21766.977428  -2434.772639  15222.019990   -130.256129                    
V  8 -14630.446097 -12735.485270 -22459.652673     -0.018304                    
P  9  -4339.113672  15388.602377 -21275.407369   -121.635901                    
V  9 -22124.648400 -15254.617355  -6586.317886      0.091193                    
P 10  -4011.526720 -14414.480916  22106.349446    -43.604672                    
V 10  25549.365551 -10453.845852  -2503.015832     -0.015677                    
P 11  13539.685335   8189.935563 -21328.647394   -259.717203                    
V 11  -5293.476641  26565.353985   6797.144582     -0.157479                    
P 12  24508.954182  -9936.055180  -2192.316899   -395.942587                    
V 12   3200.323725   1784.560970  31747.511987     -0.046637                    
P 13  21569.319728  11462.401072  10505.539917    542.000789                    
V 13   8046.419888  11073.271894 -27912.155224      0.050356                    
P 14    269.854205  16112.924221  21106.946873    109.905867                    
V 14 -25310.906160   8933.066757  -6658.163992      0.121748                    
P 15  21715.878450   -631.463839  14985.038479     54.394283                    
V 15  16072.320239  11895.371445 -21854.400007      0.035398                    
P 16 -22976.030152  -2655.448771 -13755.953922   -485.153111                    
V 16  15462.826122  -6730.751871 -24645.070105      0.041929                    
P 17  10578.733722  20791.980284  13024.784203    720.067027                    
V 17 -13258.996991  -8914.515099  25959.569148      0.009503                    
P 18   4722.717550 -26010.302729  -1367.052540   -330.781488                    
V 18   2268.710183   2087.286370 -32084.324814     -0.145450                    
P 19  16363.371833  20395.570324   5325.971463    338.636907                    
V 19  -6537.042222  -3230.967256  30864.750251      0.051326                    
P 20  18939.441457   3396.678343 -18191.798237    424.782549                    
V 20 -18663.023411  14029.773096 -16964.178240     -0.020533                    
P 21 -15253.272312   4994.336914  21561.005007    152.568593                    
V 21     94.549742 -26304.522649   7186.069313     -0.003779                    
P 22 -18129.926835 -19326.929222   3232.461338    507.012453                    
V 22   4338.598419    458.476784  31352.248923      0.056891                    
P 23   9471.681671 -17416.483396  17599.814038     39.144671                    
V 23  20990.531347  -7871.093920 -19244.225619      0.039467                    
P 24  14449.503533 -10860.476332  18960.830965   -245.022128                    
V 24    994.607893  25134.056194  13802.165581     -0.126313                    
P 25  16169.846648 -16868.052809 -12686.540283    453.672309                    
V 25  15461.849645  -3896.176435  25778.922132      0.024303                    
P 26 -14622.693395  -9426.851096 -20267.935690    237.575079                    
V 26  22311.400989 -12376.539534 -10056.470538     -0.010309                    
P 27 -22973.638365 -12443.304849   5614.700737      4.710022                    
V 27  -4546.954343  -6210.703785 -30572.469078     -0.074031                    
P 28  -6137.322729 -23028.743122 -11749.258675     83.482716                    
V 28   3710.367917 -14609.122514  26738.596961     -0.005055                    
P 29   6988.688923 -13516.552303 -21814.341542   -604.523353                    
V 29  20848.339134  17987.451949  -4570.595987     -0.010226                    
P 30    650.288718  25847.048540   5540.448419   -507.027167                    
V 30  -4618.080010   6410.923505 -30267.360900      0.026260                    
P 31 -12001.433703 -13451.968572 -19537.448824   -219.333565                    
V 31   5126.778665 -24100.841493  13985.809438     -0.007267                    
P 32 -13959.412741 -19979.065361  10976.023818   -513.084749                    
V 32  12258.598650   6306.026827  27332.238982     -0.079758                    
EOF
